NORAD_CAT_ID,OBJECT_NAME,OBJECT_TYPE,EPOCH,MEAN_MOTION,ECCENTRICITY,INCLINATION,RA_OF_ASC_NODE,ARG_OF_PERICENTER,MEAN_ANOMALY,BSTAR,MEAN_MOTION_DOT,MEAN_MOTION_DDOT,TLE_LINE0,TLE_LINE1,TLE_LINE2,SEMIMAJOR_AXIS,PERIOD,APOGEE,PERIGEE,DECAYED
52492.0,STARLINK-3916,PAYLOAD,2023-08-25 07:50:53,15.08839836,0.0001519,53.2151,252.2159,104.9334,255.1827,1.8303e-05,3e-08,0.0,0 STARLINK-3916,1 52492U 22049AT  23237.32700370  .00000003  00000-0  18303-4 0  9990,2 52492  53.2151 252.2159 0001519 104.9334 255.1827 15.08839836 72557,6917.881,95.438,540.797,538.695,0.0
52492.0,STARLINK-3916,PAYLOAD,2023-08-26 07:41:39,15.08841816,0.0001548,53.2161,247.7576,104.7955,255.3209,5.8062e-05,6.36e-06,0.0,0 STARLINK-3916,1 52492U 22049AT  23238.32060153  .00000636  00000-0  58062-4 0  9997,2 52492  53.2161 247.7576 0001548 104.7955 255.3209 15.08841816 72545,6917.875,95.437,540.811,538.669,0.0
52492.0,STARLINK-3916,PAYLOAD,2023-08-27 01:10:54,15.0883507,0.0001478,53.216,244.486,99.763,260.3529,4.776e-05,4.72e-06,0.0,0 STARLINK-3916,1 52492U 22049AT  23239.04924725  .00000472  00000-0  47760-4 0  9992,2 52492  53.2160 244.4860 0001478  99.7630 260.3529 15.08835070 72815,6917.895,95.438,540.783,538.738,0.0
52492.0,STARLINK-3916,PAYLOAD,2023-08-27 04:21:41,15.08835261,0.0001483,53.2161,243.8912,101.7141,258.4017,4.602e-05,4.44e-06,0.0,0 STARLINK-3916,1 52492U 22049AT  23239.18172752  .00000444  00000-0  46020-4 0  9999,2 52492  53.2161 243.8912 0001483 101.7141 258.4017 15.08835261 72670,6917.895,95.438,540.786,538.734,0.0
52492.0,STARLINK-3916,PAYLOAD,2023-08-28 07:23:14,15.08838896,0.0001359,53.2156,238.8316,89.9824,270.1323,2.6117e-05,1.28e-06,0.0,0 STARLINK-3916,1 52492U 22049AT  23240.30780759  .00000128  00000-0  26117-4 0  9991,2 52492  53.2156 238.8316 0001359  89.9824 270.1323 15.08838896 73009,6917.884,95.438,540.689,538.809,0.0
52492.0,STARLINK-3916,PAYLOAD,2023-08-28 16:55:33,15.08838827,0.0001387,53.2152,237.0497,93.7023,266.4128,6.5985e-05,7.62e-06,0.0,0 STARLINK-3916,1 52492U 22049AT  23240.70524778  .00000762  00000-0  65985-4 0  9992,2 52492  53.2152 237.0497 0001387  93.7023 266.4128 15.08838827 72904,6917.884,95.438,540.708,538.789,0.0
52492.0,STARLINK-3916,PAYLOAD,2023-08-29 08:49:24,15.08838775,0.0001427,53.2156,234.076,91.3186,268.797,8.2689e-05,1.028e-05,0.0,0 STARLINK-3916,1 52492U 22049AT  23241.36764887  .00001028  00000-0  82689-4 0  9998,2 52492  53.2156 234.0760 0001427  91.3186 268.7970 15.08838775 73168,6917.884,95.438,540.736,538.762,0.0
52492.0,STARLINK-3916,PAYLOAD,2023-08-30 16:37:07,15.08836314,0.0001378,53.2159,228.1277,92.035,268.08,1.167e-05,-1.02e-06,0.0,0 STARLINK-3916,1 52492U 22049AT  23242.69245354 -.00000102  00000-0  11670-4 0  9993,2 52492  53.2159 228.1277 0001378  92.0350 268.0800 15.08836314 73201,6917.892,95.438,540.71,538.803,0.0
52492.0,STARLINK-3916,PAYLOAD,2023-08-31 03:44:50,15.08826349,0.0001102,53.2162,226.0467,93.7519,266.3599,0.00017066,2.428e-05,0.0,0 STARLINK-3916,1 52492U 22049AT  23243.15613680  .00002428  00000-0  17066-3 0  9992,2 52492  53.2162 226.0467 0001102  93.7519 266.3599 15.08826349 73431,6917.922,95.438,540.549,539.025,0.0
52492.0,STARLINK-3916,PAYLOAD,2023-08-31 22:49:27,15.08840361,0.0001244,53.2154,222.4788,87.1595,272.954,5.0999e-05,5.24e-06,0.0,0 STARLINK-3916,1 52492U 22049AT  23243.95101100  .00000524  00000-0  50999-4 0  9997,2 52492  53.2154 222.4788 0001244  87.1595 272.9540 15.08840361 73558,6917.879,95.438,540.605,538.884,0.0
52492.0,STARLINK-3916,PAYLOAD,2023-09-01 09:57:08,15.08848517,0.0001367,53.2156,220.3974,90.5838,269.5311,0.00010391,1.367e-05,0.0,0 STARLINK-3916,1 52492U 22049AT  23244.41468427  .00001367  00000-0  10391-3 0  9994,2 52492  53.2156 220.3974 0001367  90.5838 269.5311 15.08848517 73625,6917.854,95.437,540.665,538.774,0.0
52492.0,STARLINK-3916,PAYLOAD,2023-09-02 05:01:47,15.08823943,1.52e-05,53.2167,216.832,45.9587,314.1418,0.00026896,3.994e-05,0.0,0 STARLINK-3916,1 52492U 22049AT  23245.20957529  .00003994  00000-0  26896-3 0  9993,2 52492  53.2167 216.8320 0000152  45.9587 314.1418 15.08823943 73742,6917.929,95.439,539.9,539.689,0.0
52492.0,STARLINK-3916,PAYLOAD,2023-09-03 00:06:24,15.08836771,0.0001588,53.2142,213.2591,95.5495,264.5679,-3.0051e-05,-7.66e-06,0.0,0 STARLINK-3916,1 52492U 22049AT  23246.00445505 -.00000766  00000-0 -30051-4 0  9993,2 52492  53.2142 213.2591 0001588  95.5495 264.5679 15.08836771 73862,6917.89,95.438,540.854,538.657,0.0
52492.0,STARLINK-3916,PAYLOAD,2023-09-03 04:52:33,15.08842769,0.0001438,53.2152,212.3678,93.1904,266.9252,1.8169e-05,1e-08,0.0,0 STARLINK-3916,1 52492U 22049AT  23246.20317042  .00000001  00000-0  18169-4 0  9995,2 52492  53.2152 212.3678 0001438  93.1904 266.9252 15.08842769 73892,6917.872,95.437,540.732,538.742,0.0
52492.0,STARLINK-3916,PAYLOAD,2023-09-03 14:24:53,15.08837605,0.000131,53.2157,210.5844,91.6932,268.421,-6.0508e-05,-1.251e-05,0.0,0 STARLINK-3916,1 52492U 22049AT  23246.60061579 -.00001251  00000-0 -60508-4 0  9994,2 52492  53.2157 210.5844 0001310  91.6932 268.4210 15.08837605 73956,6917.888,95.438,540.659,538.846,0.0
52492.0,STARLINK-3916,PAYLOAD,2023-09-04 04:43:21,15.08832183,0.0001362,53.2163,207.9097,97.6079,262.5068,4.6902e-05,4.58e-06,0.0,0 STARLINK-3916,1 52492U 22049AT  23247.19677822  .00000458  00000-0  46902-4 0  9991,2 52492  53.2163 207.9097 0001362  97.6079 262.5068 15.08832183 73882,6917.904,95.438,540.712,538.827,0.0
52492.0,STARLINK-3916,PAYLOAD,2023-09-04 23:47:59,15.08836274,0.0001361,53.2165,204.341,97.4258,262.6888,4.9806e-05,5.05e-06,0.0,0 STARLINK-3916,1 52492U 22049AT  23247.99165857  .00000505  00000-0  49806-4 0  9998,2 52492  53.2165 204.3410 0001361  97.4258 262.6888 15.08836274 74168,6917.892,95.438,540.698,538.815,0.0
52492.0,STARLINK-3916,PAYLOAD,2023-09-05 06:09:31,15.08839666,0.0001391,53.2167,203.1519,97.6758,262.4392,7.5573e-05,9.15e-06,0.0,0 STARLINK-3916,1 52492U 22049AT  23248.25661626  .00000915  00000-0  75573-4 0  9998,2 52492  53.2167 203.1519 0001391  97.6758 262.4392 15.08839666 74040,6917.881,95.438,540.709,538.784,0.0
52492.0,STARLINK-3916,PAYLOAD,2023-09-06 02:49:32,15.08836081,0.0001373,53.2167,199.2852,96.3666,263.7482,9.1126e-05,1.163e-05,0.0,0 STARLINK-3916,1 52492U 22049AT  23249.11773958  .00001163  00000-0  91126-4 0  9994,2 52492  53.2167 199.2852 0001373  96.3666 263.7482 15.08836081 74333,6917.892,95.438,540.707,538.808,0.0
52492.0,STARLINK-3916,PAYLOAD,2023-09-06 20:18:47,15.08840808,0.0001413,53.217,196.0143,95.0477,265.0676,5.816e-05,6.38e-06,0.0,0 STARLINK-3916,1 52492U 22049AT  23249.84637837  .00000638  00000-0  58160-4 0  9996,2 52492  53.2170 196.0143 0001413  95.0477 265.0676 15.08840808 74282,6917.878,95.438,540.72,538.765,0.0
52492.0,STARLINK-3916,PAYLOAD,2023-09-07 02:40:19,15.08838439,0.0001389,53.2168,194.8242,95.3449,264.7702,4.0138e-05,3.51e-06,0.0,0 STARLINK-3916,1 52492U 22049AT  23250.11134061  .00000351  00000-0  40138-4 0  9997,2 52492  53.2168 194.8242 0001389  95.3449 264.7702 15.08838439 74327,6917.885,95.438,540.711,538.789,0.0
52492.0,STARLINK-3916,PAYLOAD,2023-09-08 02:31:06,15.08845201,0.0001423,53.2161,190.3629,96.5037,263.6117,6.6236e-05,7.66e-06,0.0,0 STARLINK-3916,1 52492U 22049AT  23251.10493429  .00000766  00000-0  66236-4 0  9990,2 52492  53.2161 190.3629 0001423  96.5037 263.6117 15.08845201 74632,6917.864,95.437,540.714,538.745,0.0
52492.0,STARLINK-3916,PAYLOAD,2023-09-08 05:41:52,15.08847597,0.0001381,53.2157,189.7676,96.1422,263.9728,8.0903e-05,1e-05,0.0,0 STARLINK-3916,1 52492U 22049AT  23251.23741178  .00001000  00000-0  80903-4 0  9990,2 52492  53.2157 189.7676 0001381  96.1422 263.9728 15.08847597 74493,6917.857,95.437,540.678,538.767,0.0
52492.0,STARLINK-3916,PAYLOAD,2023-09-09 02:21:53,15.0884167,0.0001408,53.2167,185.9027,97.8828,262.2324,6.706e-05,7.8e-06,0.0,0 STARLINK-3916,1 52492U 22049AT  23252.09853627  .00000780  00000-0  67060-4 0  9991,2 52492  53.2167 185.9027 0001408  97.8828 262.2324 15.08841670 74782,6917.875,95.437,540.714,538.766,0.0
52492.0,STARLINK-3916,PAYLOAD,2023-09-10 03:48:03,15.08842259,0.000122,53.2177,181.1477,89.6677,270.4455,1.4095e-05,-6.4e-07,0.0,0 STARLINK-3916,1 52492U 22049AT  23253.15837898 -.00000064  00000-0  14095-4 0  9997,2 52492  53.2177 181.1477 0001220  89.6677 270.4455 15.08842259 74941,6917.873,95.437,540.582,538.895,0.0
52492.0,STARLINK-3916,PAYLOAD,2023-09-11 02:03:28,15.08837448,0.0001265,53.2174,176.9845,95.0462,265.0675,5.546e-06,-2e-06,0.0,0 STARLINK-3916,1 52492U 22049AT  23254.08574498 -.00000200  00000-0  55460-5 0  9998,2 52492  53.2174 176.9845 0001265  95.0462 265.0675 15.08837448 75085,6917.888,95.438,540.628,538.878,0.0
52492.0,STARLINK-3916,PAYLOAD,2023-09-11 11:35:46,15.08842229,0.0001241,53.2173,175.2,87.8593,272.2541,3.5948e-05,2.84e-06,0.0,0 STARLINK-3916,1 52492U 22049AT  23254.48318171  .00000284  00000-0  35948-4 0  9995,2 52492  53.2173 175.2000 0001241  87.8593 272.2541 15.08842229 74980,6917.874,95.437,540.597,538.88,0.0
52492.0,STARLINK-3916,PAYLOAD,2023-09-12 01:54:15,15.08840413,0.0001325,53.2175,172.5261,104.1935,255.9204,8.3621e-05,1.043e-05,0.0,0 STARLINK-3916,1 52492U 22049AT  23255.07934325  .00001043  00000-0  83621-4 0  9991,2 52492  53.2175 172.5261 0001325 104.1935 255.9204 15.08840413 75075,6917.879,95.438,540.661,538.828,0.0
52492.0,STARLINK-3916,PAYLOAD,2023-09-13 01:45:01,15.08848256,0.0001167,53.2162,168.0643,101.9513,258.161,0.00010878,1.444e-05,0.0,0 STARLINK-3916,1 52492U 22049AT  23256.07293914  .00001444  00000-0  10878-3 0  9992,2 52492  53.2162 168.0643 0001167 101.9513 258.1610 15.08848256 75389,6917.855,95.437,540.527,538.913,0.0
52492.0,STARLINK-3916,PAYLOAD,2023-09-13 03:20:24,15.08852379,0.0001234,53.2164,167.7676,109.793,250.3195,0.0001477,2.064e-05,0.0,0 STARLINK-3916,1 52492U 22049AT  23256.13917547  .00002064  00000-0  14770-3 0  9998,2 52492  53.2164 167.7676 0001234 109.7930 250.3195 15.08852379 75234,6917.843,95.437,540.561,538.854,0.0
